SENTINEL-6              
1 46984U 20086A   23246.28759985 -.00000049  00000+0  52080-4 0  9999
2 46984  66.0400  89.2410 0007849 268.5377  91.4739 12.80929532129959
